{
  "type": "FeatureCollection",
  "features": [
    { "type": "Feature", "properties": { "name": "Dakar Plateau", "department": "Dakar", "region": "Dakar" }, "geometry": { "type": "Point", "coordinates": [-17.4441, 14.6928] } },
    { "type": "Feature", "properties": { "name": "Pikine", "department": "Pikine", "region": "Dakar" }, "geometry": { "type": "Point", "coordinates": [-17.3907, 14.7548] } },
    { "type": "Feature", "properties": { "name": "Guédiawaye", "department": "Guédiawaye", "region": "Dakar" }, "geometry": { "type": "Point", "coordinates": [-17.3939, 14.7726] } },
    { "type": "Feature", "properties": { "name": "Rufisque", "department": "Rufisque", "region": "Dakar" }, "geometry": { "type": "Point", "coordinates": [-17.2736, 14.7158] } },
    { "type": "Feature", "properties": { "name": "Keur Massar", "department": "Keur Massar", "region": "Dakar" }, "geometry": { "type": "Point", "coordinates": [-17.3133, 14.7731] } },
    { "type": "Feature", "properties": { "name": "Bargny", "department": "Rufisque", "region": "Dakar" }, "geometry": { "type": "Point", "coordinates": [-17.2328, 14.6981] } },
    { "type": "Feature", "properties": { "name": "Diamniadio", "department": "Rufisque", "region": "Dakar" }, "geometry": { "type": "Point", "coordinates": [-17.1833, 14.7167] } },
    { "type": "Feature", "properties": { "name": "Sébikotane", "department": "Rufisque", "region": "Dakar" }, "geometry": { "type": "Point", "coordinates": [-17.1333, 14.7333] } },
    { "type": "Feature", "properties": { "name": "Thiès", "department": "Thiès", "region": "Thiès" }, "geometry": { "type": "Point", "coordinates": [-16.9260, 14.7886] } },
    { "type": "Feature", "properties": { "name": "Mbour", "department": "Mbour", "region": "Thiès" }, "geometry": { "type": "Point", "coordinates": [-16.9642, 14.4158] } },
    { "type": "Feature", "properties": { "name": "Tivaouane", "department": "Tivaouane", "region": "Thiès" }, "geometry": { "type": "Point", "coordinates": [-16.8167, 14.9500] } },
    { "type": "Feature", "properties": { "name": "Saly", "department": "Mbour", "region": "Thiès" }, "geometry": { "type": "Point", "coordinates": [-17.0167, 14.4500] } },
    { "type": "Feature", "properties": { "name": "Joal-Fadiouth", "department": "Mbour", "region": "Thiès" }, "geometry": { "type": "Point", "coordinates": [-16.8333, 14.1667] } },
    { "type": "Feature", "properties": { "name": "Pout", "department": "Thiès", "region": "Thiès" }, "geometry": { "type": "Point", "coordinates": [-17.0611, 14.7700] } },
    { "type": "Feature", "properties": { "name": "Kayar", "department": "Thiès", "region": "Thiès" }, "geometry": { "type": "Point", "coordinates": [-17.1167, 14.9167] } },
    { "type": "Feature", "properties": { "name": "Saint-Louis", "department": "Saint-Louis", "region": "Saint-Louis" }, "geometry": { "type": "Point", "coordinates": [-16.4897, 16.0326] } },
    { "type": "Feature", "properties": { "name": "Dagana", "department": "Dagana", "region": "Saint-Louis" }, "geometry": { "type": "Point", "coordinates": [-15.5048, 16.5172] } },
    { "type": "Feature", "properties": { "name": "Podor", "department": "Podor", "region": "Saint-Louis" }, "geometry": { "type": "Point", "coordinates": [-14.9667, 16.6500] } },
    { "type": "Feature", "properties": { "name": "Richard Toll", "department": "Dagana", "region": "Saint-Louis" }, "geometry": { "type": "Point", "coordinates": [-15.7000, 16.4625] } },
    { "type": "Feature", "properties": { "name": "Ross Béthio", "department": "Dagana", "region": "Saint-Louis" }, "geometry": { "type": "Point", "coordinates": [-15.8167, 16.2667] } },
    { "type": "Feature", "properties": { "name": "Kaolack", "department": "Kaolack", "region": "Kaolack" }, "geometry": { "type": "Point", "coordinates": [-16.0758, 14.1522] } },
    { "type": "Feature", "properties": { "name": "Nioro du Rip", "department": "Nioro du Rip", "region": "Kaolack" }, "geometry": { "type": "Point", "coordinates": [-15.7833, 13.7500] } },
    { "type": "Feature", "properties": { "name": "Guinguinéo", "department": "Guinguinéo", "region": "Kaolack" }, "geometry": { "type": "Point", "coordinates": [-15.9500, 14.2667] } },
    { "type": "Feature", "properties": { "name": "Ziguinchor", "department": "Ziguinchor", "region": "Ziguinchor" }, "geometry": { "type": "Point", "coordinates": [-16.2719, 12.5681] } },
    { "type": "Feature", "properties": { "name": "Oussouye", "department": "Oussouye", "region": "Ziguinchor" }, "geometry": { "type": "Point", "coordinates": [-16.5333, 12.4833] } },
    { "type": "Feature", "properties": { "name": "Bignona", "department": "Bignona", "region": "Ziguinchor" }, "geometry": { "type": "Point", "coordinates": [-16.2333, 12.8000] } },
    { "type": "Feature", "properties": { "name": "Cap Skirring", "department": "Oussouye", "region": "Ziguinchor" }, "geometry": { "type": "Point", "coordinates": [-16.7500, 12.3833] } },
    { "type": "Feature", "properties": { "name": "Kolda", "department": "Kolda", "region": "Kolda" }, "geometry": { "type": "Point", "coordinates": [-14.9500, 12.8833] } },
    { "type": "Feature", "properties": { "name": "Vélingara", "department": "Vélingara", "region": "Kolda" }, "geometry": { "type": "Point", "coordinates": [-14.1167, 13.1500] } },
    { "type": "Feature", "properties": { "name": "Médina Yoro Foulah", "department": "Médina Yoro Foulah", "region": "Kolda" }, "geometry": { "type": "Point", "coordinates": [-14.5833, 13.2000] } },
    { "type": "Feature", "properties": { "name": "Tambacounda", "department": "Tambacounda", "region": "Tambacounda" }, "geometry": { "type": "Point", "coordinates": [-13.6833, 13.7667] } },
    { "type": "Feature", "properties": { "name": "Bakel", "department": "Bakel", "region": "Tambacounda" }, "geometry": { "type": "Point", "coordinates": [-12.4553, 14.9044] } },
    { "type": "Feature", "properties": { "name": "Koumpentoum", "department": "Koumpentoum", "region": "Tambacounda" }, "geometry": { "type": "Point", "coordinates": [-14.5500, 13.9833] } },
    { "type": "Feature", "properties": { "name": "Goudiry", "department": "Goudiry", "region": "Tambacounda" }, "geometry": { "type": "Point", "coordinates": [-12.7167, 14.1833] } },
    { "type": "Feature", "properties": { "name": "Kédougou", "department": "Kédougou", "region": "Kédougou" }, "geometry": { "type": "Point", "coordinates": [-12.1833, 12.5500] } },
    { "type": "Feature", "properties": { "name": "Saraya", "department": "Saraya", "region": "Kédougou" }, "geometry": { "type": "Point", "coordinates": [-11.7833, 12.8333] } },
    { "type": "Feature", "properties": { "name": "Salémata", "department": "Salémata", "region": "Kédougou" }, "geometry": { "type": "Point", "coordinates": [-12.6333, 12.6333] } },
    { "type": "Feature", "properties": { "name": "Matam", "department": "Matam", "region": "Matam" }, "geometry": { "type": "Point", "coordinates": [-13.2500, 15.6558] } },
    { "type": "Feature", "properties": { "name": "Kanel", "department": "Kanel", "region": "Matam" }, "geometry": { "type": "Point", "coordinates": [-13.1750, 15.4903] } },
    { "type": "Feature", "properties": { "name": "Ranérou", "department": "Ranérou", "region": "Matam" }, "geometry": { "type": "Point", "coordinates": [-13.9667, 15.3000] } },
    { "type": "Feature", "properties": { "name": "Diourbel", "department": "Diourbel", "region": "Diourbel" }, "geometry": { "type": "Point", "coordinates": [-16.2333, 14.6500] } },
    { "type": "Feature", "properties": { "name": "Bambey", "department": "Bambey", "region": "Diourbel" }, "geometry": { "type": "Point", "coordinates": [-16.4500, 14.7000] } },
    { "type": "Feature", "properties": { "name": "Mbacké", "department": "Mbacké", "region": "Diourbel" }, "geometry": { "type": "Point", "coordinates": [-15.9167, 14.8000] } },
    { "type": "Feature", "properties": { "name": "Touba", "department": "Mbacké", "region": "Diourbel" }, "geometry": { "type": "Point", "coordinates": [-15.8833, 14.8500] } },
    { "type": "Feature", "properties": { "name": "Fatick", "department": "Fatick", "region": "Fatick" }, "geometry": { "type": "Point", "coordinates": [-16.4000, 14.3333] } },
    { "type": "Feature", "properties": { "name": "Foundiougne", "department": "Foundiougne", "region": "Fatick" }, "geometry": { "type": "Point", "coordinates": [-16.4694, 14.1336] } },
    { "type": "Feature", "properties": { "name": "Gossas", "department": "Gossas", "region": "Fatick" }, "geometry": { "type": "Point", "coordinates": [-16.0667, 14.4833] } },
    { "type": "Feature", "properties": { "name": "Sokone", "department": "Foundiougne", "region": "Fatick" }, "geometry": { "type": "Point", "coordinates": [-16.3667, 13.8833] } },
    { "type": "Feature", "properties": { "name": "Louga", "department": "Louga", "region": "Louga" }, "geometry": { "type": "Point", "coordinates": [-16.2247, 15.6167] } },
    { "type": "Feature", "properties": { "name": "Kébémer", "department": "Kébémer", "region": "Louga" }, "geometry": { "type": "Point", "coordinates": [-16.4500, 15.3667] } },
    { "type": "Feature", "properties": { "name": "Linguère", "department": "Linguère", "region": "Louga" }, "geometry": { "type": "Point", "coordinates": [-15.1167, 15.3833] } },
    { "type": "Feature", "properties": { "name": "Kaffrine", "department": "Kaffrine", "region": "Kaffrine" }, "geometry": { "type": "Point", "coordinates": [-15.5500, 14.1056] } },
    { "type": "Feature", "properties": { "name": "Birkelane", "department": "Birkelane", "region": "Kaffrine" }, "geometry": { "type": "Point", "coordinates": [-15.7500, 14.0833] } },
    { "type": "Feature", "properties": { "name": "Koungheul", "department": "Koungheul", "region": "Kaffrine" }, "geometry": { "type": "Point", "coordinates": [-14.8000, 13.9833] } },
    { "type": "Feature", "properties": { "name": "Malem Hodar", "department": "Malem Hodar", "region": "Kaffrine" }, "geometry": { "type": "Point", "coordinates": [-15.2833, 14.0833] } },
    { "type": "Feature", "properties": { "name": "Sédhiou", "department": "Sédhiou", "region": "Sédhiou" }, "geometry": { "type": "Point", "coordinates": [-15.5564, 12.7081] } },
    { "type": "Feature", "properties": { "name": "Bounkiling", "department": "Bounkiling", "region": "Sédhiou" }, "geometry": { "type": "Point", "coordinates": [-15.6833, 12.8833] } },
    { "type": "Feature", "properties": { "name": "Goudomp", "department": "Goudomp", "region": "Sédhiou" }, "geometry": { "type": "Point", "coordinates": [-15.8667, 12.5833] } }
  ]
}
